SL-3 R/B                
1 19046U 88032B   18062.96056537 -.00000638  00000-0 -43044-4 0  9997
2 19046  97.4936 106.8595 0037300 166.1871 194.0383 15.02380683611357
SL-16 R/B               
1 19120U 88039B   18063.53255663 -.00000020  00000-0  13350-4 0  9993
2 19120  71.0149 134.8242 0020916 154.6333 205.5824 14.19181885543323
COSMOS 1953             
1 19210U 88050A   18063.32310701 -.00000156  00000-0 -12926-4 0  9997
2 19210  82.5182 141.1373 0015213  94.3166 265.9799 15.05507951616976
SL-8 R/B                
1 19257U 88053B   18062.54955833  .00000080  00000-0  35515-4 0  9998
2 19257  74.0475  99.7196 0021750 285.2236 183.6116 14.37393576556030
COSMOS 1975             
1 19573U 88093A   18063.55667088  .00000791  00000-0  54489-4 0  9997
2 19573  82.5177  93.5374 0015528 127.9306 232.3326 15.04406467598951
SL-14 R/B               
1 19574U 88093B   18062.94179029  .00000061  00000-0  45239-5 0  9997
2 19574  82.5293 262.2021 0021175 344.2157 129.2043 14.83255444566866
SL-16 R/B               
1 19650U 88102B   18062.87575677  .00000183  00000-0  11713-3 0  9997
2 19650  71.0000 189.0382 0013317 155.9166 204.2582 14.15767107512471
INTERCOSMOS 24          
1 20261U 89080A   18062.87894334  .00000301  00000-0  87480-4 0  9994
2 20261  82.5982 201.7157 1203717 217.8022 133.2340 12.55962512298972
SL-14 R/B               
1 20262U 89080C   18063.14948608  .00000030  00000-0  23884-5 0  9998
2 20262  82.5891 249.5870 1237436  23.9657 341.4281 12.48886446294166
DELTA 1 R/B             
1 20323U 89089B   18063.52787959  .00000051  00000-0  22448-4 0  9994
2 20323  97.1229 333.5644 0071433 343.1402  16.7421 14.48244955492401
DELTA 2 R/B(1)          
1 20453U 90008B   18063.50151015  .00001185  00000-0  69809-4 0  9998
2 20453  35.6248 139.9344 0286420 174.8267 185.5506 14.83906826486885
COSMOS 2058             
1 20465U 90010A   18062.86294818  .00000210  00000-0  15551-4 0  9994
2 20465  82.4923 358.1538 0016548 135.7456 224.5094 14.97680274524202
SL-14 R/B               
1 20466U 90010B   18062.76570135  .00000076  00000-0  67537-5 0  9995
2 20466  82.5036 129.7365 0019962 201.8896 158.1467 14.81315175515928
SL-14 R/B               
1 20511U 90018B   18063.14163712  .00000053  00000-0  39078-5 0  9990
2 20511  82.5204  72.0279 0017040 345.7907  80.7652 14.79972877510517
HST                     
1 20580U 90037B   18063.22037535  .00000429  00000-0  15286-4 0  9990
2 20580  28.4698  88.9713 0002982  91.5333 339.3535 15.08988950329597
SL-16 R/B               
1 20625U 90046B   18063.14294924 -.00000294  00000-0 -12787-3 0  9992
2 20625  71.0004 323.5418 0011956  69.0802 291.1599 14.14625276434603
COSMOS 2084             
1 20663U 90055A   18062.59068628 -.00000022  00000-0  16294-4 0  9998
2 20663  62.7918  82.1992 0131239 115.4788 245.9950 14.91780793498505
SL-6 R/B(2)             
1 20666U 90055D   18062.92991503 -.00000039  00000-0  14858-4 0  9997
2 20666  62.7862 359.2418 0109250 135.5575 225.4350 14.92089581500466
SL-8 R/B                
1 20775U 90078B   18062.88317868  .00001182  00000-0  58553-4 0  9993
2 20775  82.9307 195.1150 0582825 261.5035  91.9725 14.31722026385913
SL-8 R/B                
1 21088U 91006B   18062.89961139  .00000001  00000-0 -13839-4 0  9998
2 21088  82.9449 187.1635 0021479 315.2062 162.7254 13.77074941361077
OKEAN-3                 
1 21397U 91039A   18063.10771693  .00000209  00000-0  17657-4 0  9997
2 21397  82.5191 251.4810 0019437  88.3279 272.0167 14.92630811448558
COSMOS 2151             
1 21422U 91042A   18063.36883686  .00000134  00000-0  10695-4 0  9996
2 21422  82.5033 358.8375 0015116 140.8117 219.4201 14.91928461447299
SL-14 R/B               
1 21423U 91042B   18063.13706480  .00000060  00000-0  48372-5 0  9990
2 21423  82.4911  78.4974 0019024 116.7840 243.5322 14.79724508441020
ERS-1                   
1 21574U 91050A   18062.87257756 -.00000003  00000-0  13675-4 0  9998
2 21574  98.4931  11.3409 0031814 259.7273 100.0326 14.37632110394898
ARIANE 40 R/B           
1 21610U 91050F   18062.84423338  .00000004  00000-0  15114-4 0  9997
2 21610  98.5689 125.4970 0002285 231.8109 258.7472 14.40828921397504
INTERCOSMOS 25          
1 21819U 91086A   18063.06925594  .00000264  00000-0  53412-4 0  9994
2 21819  82.5765 266.9786 1518593 253.9119  89.0015 12.04784285143565
SL-14 R/B               
1 21820U 91086B   18063.16935788  .00000163  00000-0  24535-4 0  9995
2 21820  82.5650 325.1177 1576969  91.8450 286.3172 11.93365482137795
SL-8 R/B                
1 21876U 92008B   18062.63597156 -.00000013  00000-0 -28870-4 0  9997
2 21876  82.9242 284.3767 0035509  31.7758  20.7611 13.75620192306825
SL-8 R/B                
1 21938U 92020B   18062.88059061  .00000050  00000-0  35679-4 0  9999
2 21938  82.9333 167.6703 0029332 184.9780 314.7820 13.75268107298687
SL-16 R/B               
1 22220U 92076B   18062.94913192  .00000058  00000-0  53144-4 0  9991
2 22220  70.9985 232.4548 0014886 241.7135 276.0380 14.16429328307226
SL-16 R/B               
1 22285U 92093B   18062.95650799 -.00000243  00000-0 -10099-3 0  9992
2 22285  71.0210  27.3461 0001865  98.5666 261.5668 14.15017368299005
COSMOS 2228             
1 22286U 92094A   18063.52621568  .00000173  00000-0  16123-4 0  9995
2 22286  82.5205 128.5913 0020565 341.4336  18.6128 14.87909463361204
SL-16 R/B               
1 22566U 93016B   18062.93974831 -.00000033  00000-0  74191-5 0  9995
2 22566  71.0060 241.6800 0008040 100.7071 259.4957 14.14959947288008
COSMOS 2242             
1 22626U 93024A   18062.82022728  .00000169  00000-0  15749-4 0  9990
2 22626  82.5243 157.0403 0018348 343.5816  16.4804 14.87774056344753
SL-16 R/B               
1 22803U 93059B   18062.62328986 -.00000087  00000-0 -19253-4 0  9993
2 22803  70.9894  62.7414 0017782 342.9558  17.0966 14.16785349265021
ARIANE 40 R/B           
1 22830U 93061H   18062.53273325 -.00000049  00000-0 -11503-5 0  9991
2 22830  98.8685  88.6485 0009939 248.3129 111.6995 14.31413801275348
COSMOS 2278             
1 23087U 94023A   18062.87330494 -.00000284  00000-0 -12533-3 0  9996
2 23087  71.0531 176.2201 0009349 193.8780 166.2086 14.13758333230955
SL-16 R/B               
1 23088U 94023B   18062.56467427  .00000226  00000-0  14243-3 0  9994
2 23088  70.9984  97.6601 0001482  38.0742 322.0485 14.14662707231950
SL-16 R/B               
1 23343U 94074B   18063.19273509 -.00000024  00000-0  41435-5 0  9992
2 23343  98.1197 107.3643 0006074 328.8464  71.7166 14.76724702255200
SL-16 R/B               
1 23405U 94077B   18062.89413596 -.00000272  00000-0 -11551-3 0  9992
2 23405  70.9825  29.3631 0005026 277.9935  82.0617 14.15196323202009
ERS-2                   
1 23560U 95021A   18063.53014208  .00000938  00000-0  45570-4 0  9999
2 23560  98.5494  96.0621 0004584 129.1344 231.0297 15.21527683214962
ARIANE 40+ R/B          
1 23561U 95021B   18062.97291453  .00000021  00000-0  22415-4 0  9992
2 23561  98.7963  75.2052 0006509 202.6306 212.3573 14.37860369198368
SL-16 R/B               
1 23705U 95058B   18062.80238540 -.00000138  00000-0 -46534-4 0  9991
2 23705  71.0209 204.3418 0014799 263.0569  96.8870 14.15109140153611
SL-16 R/B               
1 24298U 96051B   18062.91210321 -.00000230  00000-0 -98187-4 0  9996
2 24298  70.8386 234.7093 0015696 165.1421 195.0163 14.12461516108234
ORBVIEW 2 (SEASTAR)     
1 24883U 97037A   18063.41450293  .00000035  00000-0  28412-4 0  9996
2 24883  98.5521 173.8446 0003304  70.8294 289.3248 14.33439317 89180
SL-16 R/B               
1 25400U 98043G   18062.86459595 -.00000014  00000-0  12073-4 0  9996
2 25400  98.5227   8.2277 0008736 255.3018 104.7194 14.25430011 22067
SL-16 R/B               
1 25407U 98045B   18062.87587450  .00000173  00000-0  11234-3 0  9990
2 25407  71.0106 215.6980 0007863 187.6319 172.4686 14.15775281 12676
ISS (ZARYA)             
1 25544U 98067A   18062.83561485  .00001773  00000-0  33956-4 0  9995
2 25544  51.6409 183.9133 0003140 148.5049 349.9192 15.54178548102136
SL-8 R/B                
1 25723U 99022C   18063.13999945  .00006799  00000-0  94317-4 0  9997
2 25723  48.4144 217.1335 0009864 214.8395 145.1906 15.58156089 46988
CZ-4B R/B               
1 25732U 99025C   18062.97573090 -.00000035  00000-0  50933-5 0  9995
2 25732  98.9965  72.9271 0038355  72.6696 316.6275 14.17645488973349
OKEAN-O                 
1 25860U 99039A   18063.50758367  .00000011  00000-0  92939-5 0  9999
2 25860  98.2111  57.3048 0001642  71.6656 288.4731 14.76533744  2241
SL-16 R/B               
1 25861U 99039B   18062.92496102  .00000005  00000-0  81105-5 0  9997
2 25861  98.1410  41.5043 0015001 330.3652  82.1212 14.78464231  4014
TERRA                   
1 25994U 99068A   18063.25642571 -.00000035  00000-0  23980-5 0  9997
2 25994  98.2145 139.6064 0000877  66.8754 293.2549 14.57106675968545
ENVISAT                 
1 27386U 02009A   18063.49867320  .00000015  00000-0  18653-4 0  9997
2 27386  98.1984 102.4216 0001264  89.3415 270.7923 14.37916704838489
IDEFIX & ARIANE 42P R/B 
1 27422U 02021B   18062.53439487 -.00000049  00000-0 -31378-5 0  9994
2 27422  98.2485  53.6732 0012101 182.4087 177.7040 14.29259833823720
AQUA                    
1 27424U 02022A   18062.94552300  .00000121  00000-0  37033-4 0  9994
2 27424  98.2249   5.7190 0002358  50.2390  16.3393 14.57102892842057
CZ-4B R/B               
1 27432U 02024C   18062.92182701 -.00000024  00000-0  11001-4 0  9997
2 27432  99.0233  43.4258 0050872  18.9768  33.7786 14.14059611815508
MIDORI II (ADEOS-II)    
1 27597U 02056A   18062.91951225  .00000021  00000-0  25855-4 0  9996
2 27597  98.4080  26.9531 0000459  26.3332 333.7873 14.27337027792473
H-2A R/B                
1 27601U 02056E   18062.95054135  .00000054  00000-0  35168-4 0  9994
2 27601  98.3420 126.3199 0071153 244.4098 204.1356 14.31827058794980
